*******************************************************************************
 Revised: January 26, 2022             Saturn                               699
 
 PHYSICAL DATA:
  Mass x10^26 (kg)      = 5.6834          Density (g/cm^3)       =  0.687+-.001
  Equat. radius (1 bar) = 60268+-4 km     Polar radius (km)      = 54364+-10
  Vol. Mean Radius (km) = 58232+-6        Flattening             =  0.09796
  Geometric Albedo      = 0.47            Rocky core mass (Mc/M) =  0.1027
  Sid. rot. period (III)= 10h 39m 22.4s   Sid. rot. rate (rad/s) =  0.000163785 
  Mean solar day, hrs   =~10.656         
  GM (km^3/s^2)         = 37931206.234    GM 1-sigma (km^3/s^2)  = +- 98
  Equ. grav, ge (m/s^2) = 10.44           Pol. grav, gp (m/s^2)  = 12.14+-0.01
  Vis. magnitude V(1,0) = -8.88          
  Vis. mag. (opposition)= +0.67           Obliquity to orbit     = 26.73 deg
  Sidereal orbit period = 29.447498 yr    Sidereal orbit period  = 10755.698 d
  Mean daily motion     = 0.0334979 deg/d Mean orbit velocity    =  9.68 km/s
  Atmos. temp. (1 bar)  = 134+-4 K        Escape speed, km/s    =  35.5          
  Aroche(ice)/Rp        =  2.71           Hill's sphere rad. Rp  = 1100
                                 Perihelion  Aphelion    Mean
  Solar Constant (W/m^2)         16.8        13.6        15.1
  Maximum Planetary IR (W/m^2)    4.7         4.5         4.6
  Minimum Planetary IR (W/m^2)    4.7         4.5         4.6
*******************************************************************************


*******************************************************************************
Ephemeris / WWW_USER Wed May 27 02:37:04 2026 Pasadena, USA      / Horizons
*******************************************************************************
Target body name: Saturn (699)                    {source: sat441l}
Center body name: Solar System Barycenter (0)     {source: DE441}
Center-site name: BODY CENTER
*******************************************************************************
Start time      : A.D. 1800-Jan-01 00:00:00.0000 TDB
Stop  time      : A.D. 2000-Jan-01 00:00:00.0000 TDB
Step-size       : 14400 minutes
*******************************************************************************
Center geodetic : 0.0, 0.0, 0.0                   {E-lon(deg),Lat(deg),Alt(km)}
Center cylindric: 0.0, 0.0, 0.0                   {E-lon(deg),Dxy(km),Dz(km)}
Center radii    : (undefined)
Output units    : KM-S
Calendar mode   : Mixed Julian/Gregorian
Output type     : GEOMETRIC cartesian states
Output format   : 3 (position, velocity, LT, range, range-rate)
Reference frame : Ecliptic of J2000.0
*******************************************************************************
JDTDB
   X     Y     Z
   VX    VY    VZ
   LT    RG    RR
*******************************************************************************
$$SOE
2437776.500000000 = A.D. 1962-Apr-22 00:00:00.0000 TDB 
 X = 8.659586833452567E+08 Y =-1.213954736478178E+09 Z =-1.315802972725523E+07
 VX= 7.326101573864053E+00 VY= 5.584947002863558E+00 VZ=-3.883482135253906E-01
 LT= 4.974181869527340E+03 RG= 1.491222209204636E+09 RR=-2.887978023345677E-01
2437786.500000000 = A.D. 1962-May-02 00:00:00.0000 TDB 
 X = 8.722766267766235E+08 Y =-1.209110453443318E+09 Z =-1.349385667721593E+07
 VX= 7.296471389369259E+00 VY= 5.629024416615097E+00 VZ=-3.890038969697831E-01
 LT= 4.973346346019313E+03 RG= 1.490971725558448E+09 RR=-2.926424717610352E-01
2437796.500000000 = A.D. 1962-May-12 00:00:00.0000 TDB 
 X = 8.785675515885855E+08 Y =-1.204230099172799E+09 Z =-1.382911101446748E+07
 VX= 7.267650466804279E+00 VY= 5.669139252515267E+00 VZ=-3.877763654183726E-01
 LT= 4.972502428902026E+03 RG= 1.490718725571508E+09 RR=-2.927873903814442E-01
2437806.500000000 = A.D. 1962-May-22 00:00:00.0000 TDB 
 X = 8.848326970944566E+08 Y =-1.199312916355854E+09 Z =-1.416437900696427E+07
 VX= 7.234696559775689E+00 VY= 5.711261201414829E+00 VZ=-3.872756595636837E-01
 LT= 4.971650593422263E+03 RG= 1.490463351719219E+09 RR=-2.969598267275593E-01
2437816.500000000 = A.D. 1962-Jun-01 00:00:00.0000 TDB 
 X = 8.910716016213000E+08 Y =-1.194360624509562E+09 Z =-1.449880416948587E+07
 VX= 7.205781908112352E+00 VY= 5.754019576099955E+00 VZ=-3.875830733747003E-01
 LT= 4.970794615405474E+03 RG= 1.490206735965572E+09 RR=-2.992117044661902E-01
2437826.500000000 = A.D. 1962-Jun-11 00:00:00.0000 TDB 
 X = 8.972829793918881E+08 Y =-1.189372043494594E+09 Z =-1.483295009049731E+07
 VX= 7.174555393144147E+00 VY= 5.793272556902185E+00 VZ=-3.859452606364981E-01
 LT= 4.969928852476804E+03 RG= 1.489947186769141E+09 RR=-3.000275967714285E-01
2437836.500000000 = A.D. 1962-Jun-21 00:00:00.0000 TDB 
 X = 9.034684180876917E+08 Y =-1.184347559641644E+09 Z =-1.516684900635064E+07
 VX= 7.141834883080249E+00 VY= 5.836242293822243E+00 VZ=-3.861756113057628E-01
 LT= 4.969057603932929E+03 RG= 1.489685993026643E+09 RR=-3.046682247424419E-01
2437846.500000000 = A.D. 1962-Jul-01 00:00:00.0000 TDB 
 X = 9.096263185807276E+08 Y =-1.179288262971644E+09 Z =-1.549986172819889E+07
 VX= 7.112738240944964E+00 VY= 5.877044086824873E+00 VZ=-3.857272675811247E-01
 LT= 4.968180599326705E+03 RG= 1.489423073660066E+09 RR=-3.053642045375290E-01
2437856.500000000 = A.D. 1962-Jul-11 00:00:00.0000 TDB 
 X = 9.157566544668711E+08 Y =-1.174192701998648E+09 Z =-1.583281370361239E+07
 VX= 7.079264783136526E+00 VY= 5.916636357937593E+00 VZ=-3.843200044097985E-01
 LT= 4.967294035153632E+03 RG= 1.489157288407446E+09 RR=-3.077596534061708E-01
2437866.500000000 = A.D. 1962-Jul-21 00:00:00.0000 TDB 
 X = 9.218604032674856E+08 Y =-1.169062266458717E+09 Z =-1.616515835704923E+07
 VX= 7.047540814369040E+00 VY= 5.959561987874610E+00 VZ=-3.848931836415068E-01
 LT= 4.966403651345013E+03 RG= 1.488890358056896E+09 RR=-3.116605367832980E-01
2437876.500000000 = A.D. 1962-Jul-31 00:00:00.0000 TDB 
 X = 9.279355625013720E+08 Y =-1.163896906567359E+09 Z =-1.649680582025748E+07
 VX= 7.016944553433042E+00 VY= 5.998558527678787E+00 VZ=-3.836362410626581E-01
 LT= 4.965505259471179E+03 RG= 1.488621026948792E+09 RR=-3.117667573019625E-01
2437886.500000000 = A.D. 1962-Aug-10 00:00:00.0000 TDB 
 X = 9.339832586135367E+08 Y =-1.158695747669888E+09 Z =-1.682839619674522E+07
 VX= 6.982164302199602E+00 VY= 6.039150981854990E+00 VZ=-3.828925712057603E-01
 LT= 4.964599009446925E+03 RG= 1.488349340026459E+09 RR=-3.156990865940875E-01
2437896.500000000 = A.D. 1962-Aug-20 00:00:00.0000 TDB 
 X = 9.400032319451721E+08 Y =-1.153460536797364E+09 Z =-1.715908236426711E+07
 VX= 6.951389671112122E+00 VY= 6.080816693024522E+00 VZ=-3.831845645987006E-01
 LT= 4.963688969425169E+03 RG= 1.488076516891458E+09 RR=-3.179125728227561E-01
2437906.500000000 = A.D. 1962-Aug-30 00:00:00.0000 TDB 
 X = 9.459940550395451E+08 Y =-1.148190196182855E+09 Z =-1.748936553154129E+07
 VX= 6.918531429935297E+00 VY= 6.118892114502304E+00 VZ=-3.815161634639934E-01
 LT= 4.962769429558124E+03 RG= 1.487800845774488E+09 RR=-3.186514248573959E-01
2437916.500000000 = A.D. 1962-Sep-09 00:00:00.0000 TDB 
 X = 9.519573209584761E+08 Y =-1.142884955196691E+09 Z =-1.781936356903034E+07
 VX= 6.883704501141014E+00 VY= 6.160467948687637E+00 VZ=-3.815615220320938E-01
 LT= 4.961844447605750E+03 RG= 1.487523543161380E+09 RR=-3.232984506876467E-01
2437926.500000000 = A.D. 1962-Sep-19 00:00:00.0000 TDB 
 X = 9.578915612935658E+08 Y =-1.137546052237527E+09 Z =-1.814837701414162E+07
 VX= 6.852823177356349E+00 VY= 6.200086841948337E+00 VZ=-3.810705463919093E-01
 LT= 4.960914136373808E+03 RG= 1.487244642870451E+09 RR=-3.238922448474509E-01
2437936.500000000 = A.D. 1962-Sep-29 00:00:00.0000 TDB 
 X = 9.637965754311708E+08 Y =-1.132172027927507E+09 Z =-1.847722257207519E+07
 VX= 6.817757815010443E+00 VY= 6.238227381051254E+00 VZ=-3.795073937588087E-01
 LT= 4.959974434631142E+03 RG= 1.486962927375231E+09 RR=-3.260354773774163E-01
2437946.500000000 = A.D. 1962-Oct-09 00:00:00.0000 TDB 
 X = 9.696734828936374E+08 Y =-1.126764163704905E+09 Z =-1.880542740652752E+07
 VX= 6.783997941089228E+00 VY= 6.279947287159850E+00 VZ=-3.800148447713489E-01
 LT= 4.959031100790687E+03 RG= 1.486680123004486E+09 RR=-3.300039413186288E-01
2437956.500000000 = A.D. 1962-Oct-19 00:00:00.0000 TDB 
 X = 9.755202725472823E+08 Y =-1.121322586621634E+09 Z =-1.913281344257098E+07
 VX= 6.751741994108695E+00 VY= 6.317758348653383E+00 VZ=-3.787411255593931E-01
 LT= 4.958080160672035E+03 RG= 1.486395038328904E+09 RR=-3.300182972581260E-01
2437966.500000000 = A.D. 1962-Oct-29 00:00:00.0000 TDB 
 X = 9.813379419864186E+08 Y =-1.115846307562128E+09 Z =-1.946007153351754E+07
 VX= 6.715109816486587E+00 VY= 6.356808729069937E+00 VZ=-3.777829899201683E-01
 LT= 4.957121407867628E+03 RG= 1.486107611469057E+09 RR=-3.338101580606738E-01
2437976.500000000 = A.D. 1962-Nov-08 00:00:00.0000 TDB 
 X = 9.871264296067004E+08 Y =-1.110337092896606E+09 Z =-1.978636768457782E+07
 VX= 6.682375487736548E+00 VY= 6.397306044822380E+00 VZ=-3.780489053284803E-01
 LT= 4.956159205919820E+03 RG= 1.485819150582031E+09 RR=-3.360681714447355E-01
2437986.500000000 = A.D. 1962-Nov-18 00:00:00.0000 TDB 
 X = 9.928841793615454E+08 Y =-1.104793988809156E+09 Z =-2.011213068187964E+07
 VX= 6.648008987205660E+00 VY= 6.433966515924747E+00 VZ=-3.762737813096138E-01
 LT= 4.955187819194911E+03 RG= 1.485527936168102E+09 RR=-3.365382122472196E-01
2437996.500000000 = A.D. 1962-Nov-28 00:00:00.0000 TDB 
 X = 9.986127874871799E+08 Y =-1.099217058948188E+09 Z =-2.043756834155709E+07
 VX= 6.611251117178319E+00 VY= 6.474085272975294E+00 VZ=-3.761555315342271E-01
 LT= 4.954211060996470E+03 RG= 1.485235111426920E+09 RR=-3.411293996187269E-01
2438006.500000000 = A.D. 1962-Dec-08 00:00:00.0000 TDB 
 X = 1.004310927636165E+09 Y =-1.093607670461130E+09 Z =-2.076193227099729E+07
 VX= 6.578571730362901E+00 VY= 6.512653694904435E+00 VZ=-3.757294422922088E-01
 LT= 4.953229405058849E+03 RG= 1.484940818380470E+09 RR=-3.418019649316130E-01
